[{"OBJECT_NAME":"STARLINK-3854","OBJECT_ID":"2022-052BC","EPOCH":"2026-03-09T17:17:06.210528","MEAN_MOTION":15.08838034,"ECCENTRICITY":0.00012104,"INCLINATION":53.2165,"RA_OF_ASC_NODE":258.9801,"ARG_OF_PERICENTER":92.847,"MEAN_ANOMALY":267.2661,"EPHEMERIS_TYPE":0,"CLASSIFICATION_TYPE":"U","NORAD_CAT_ID":52648,"ELEMENT_SET_NO":999,"REV_AT_EPOCH":21113,"BSTAR":-6.811906e-6,"MEAN_MOTION_DOT":-3.96e-6,"MEAN_MOTION_DDOT":0},{"OBJECT_NAME":"SL-24 PLAT","OBJECT_ID":"2014-033AR","EPOCH":"2026-03-09T22:47:27.152448","MEAN_MOTION":15.0919716,"ECCENTRICITY":0.00052059,"INCLINATION":98.0981,"RA_OF_ASC_NODE":61.9435,"ARG_OF_PERICENTER":212.2329,"MEAN_ANOMALY":147.8581,"EPHEMERIS_TYPE":0,"CLASSIFICATION_TYPE":"U","NORAD_CAT_ID":40049,"ELEMENT_SET_NO":999,"REV_AT_EPOCH":63724,"BSTAR":0.00046923352,"MEAN_MOTION_DOT":7.393e-5,"MEAN_MOTION_DDOT":0}]
